{
    "links": {
        "self": "http://www.neowsapp.com/rest/v1/neo/3182185?api_key=iIulBulltgU6a56xZRHN4H3l9WmuAYTsLGpBGhQ2"
    },
    "id": "3182185",
    "neo_reference_id": "3182185",
    "name": "(2004 JV20)",
    "designation": "2004 JV20",
    "nasa_jpl_url": "http://ssd.jpl.nasa.gov/sbdb.cgi?sstr=3182185",
    "absolute_magnitude_h": 24.0,
    "estimated_diameter": {
        "kilometers": {
            "estimated_diameter_min": 0.0421264611,
            "estimated_diameter_max": 0.0941976306
        },
        "meters": {
            "estimated_diameter_min": 42.1264610556,
            "estimated_diameter_max": 94.1976305719
        },
        "miles": {
            "estimated_diameter_min": 0.0261761612,
            "estimated_diameter_max": 0.0585316759
        },
        "feet": {
            "estimated_diameter_min": 138.2101784897,
            "estimated_diameter_max": 309.0473542854
        }
    },
    "is_potentially_hazardous_asteroid": false,
    "close_approach_data": [
        {
            "close_approach_date": "2004-05-17",
            "close_approach_date_full": "2004-May-17 11:56",
            "epoch_date_close_approach": 1084794960000,
            "relative_velocity": {
                "kilometers_per_second": "15.7629071139",
                "kilometers_per_hour": "56746.4656100753",
                "miles_per_hour": "35260.0469231048"
            },
            "miss_distance": {
                "astronomical": "0.0424722404",
                "lunar": "16.5217015156",
                "kilometers": "6353756.697967948",
                "miles": "3948041.3390077624"
            },
            "orbiting_body": "Earth"
        },
        {
            "close_approach_date": "2004-11-13",
            "close_approach_date_full": "2004-Nov-13 11:58",
            "epoch_date_close_approach": 1100347080000,
            "relative_velocity": {
                "kilometers_per_second": "13.4829210138",
                "kilometers_per_hour": "48538.5156496501",
                "miles_per_hour": "30159.9460157507"
            },
            "miss_distance": {
                "astronomical": "0.4850116834",
                "lunar": "188.6695448426",
                "kilometers": "72556714.761754358",
                "miles": "45084651.9498638204"
            },
            "orbiting_body": "Earth"
        },
        {
            "close_approach_date": "2104-05-09",
            "close_approach_date_full": "2104-May-09 03:35",
            "epoch_date_close_approach": 4239747300000,
            "relative_velocity": {
                "kilometers_per_second": "20.2100017136",
                "kilometers_per_hour": "72756.0061689503",
                "miles_per_hour": "45207.7528331458"
            },
            "miss_distance": {
                "astronomical": "0.2119429414",
                "lunar": "82.4458042046",
                "kilometers": "31706212.594974818",
                "miles": "19701326.9438477684"
            },
            "orbiting_body": "Earth"
        }
    ],
    "orbital_data": {
        "orbit_id": "7",
        "orbit_determination_date": "2017-04-06 09:12:46",
        "first_observation_date": "2004-05-15",
        "last_observation_date": "2004-05-17",
        "data_arc_in_days": 2,
        "observations_used": 23,
        "orbit_uncertainty": "9",
        "minimum_orbit_intersection": ".0373569",
        "jupiter_tisserand_invariant": "4.802",
        "epoch_osculation": "2453141.5",
        "eccentricity": ".3409521513385106",
        "semi_major_axis": "1.318618073943531",
        "inclination": "25.20112835646709",
        "ascending_node_longitude": "53.44807442487117",
        "orbital_period": "553.0660029963649",
        "perihelion_distance": ".8690324048386411",
        "perihelion_argument": "252.4775274448943",
        "aphelion_distance": "1.768203743048421",
        "perihelion_time": "2453199.555271777831",
        "mean_anomaly": "322.2108433228782",
        "mean_motion": ".6509168852354249",
        "equinox": "J2000",
        "orbit_class": {
            "orbit_class_type": "APO",
            "orbit_class_description": "Near-Earth asteroid orbits which cross the Earth’s orbit similar to that of 1862 Apollo",
            "orbit_class_range": "a (semi-major axis) > 1.0 AU; q (perihelion) < 1.017 AU"
        }
    },
    "is_sentry_object": false
}